0 COSMOS 2251 DEB
1 34124U 93036KV  13282.44026735  .00004522  00000-0  14142-2 0  7908
2 34124 074.0363 136.6274 0024909 215.4699 213.6000 14.40817123243875
0 COSMOS 2251 DEB
1 34124U 93036KV  13284.05383325  .00005255  00000-0  16419-2 0  7912
2 34124 074.0367 133.6431 0024866 212.0305 303.1537 14.40824189244118
0 COSMOS 2251 DEB
1 34124U 93036KV  13286.52823521  .00004084  00000-0  12776-2 0  7925
2 34124 074.0363 129.0653 0024729 206.7210 178.0129 14.40844311244465
0 COSMOS 2251 DEB
1 34124U 93036KV  13288.69890630  .00006595  00000-0  20562-2 0  7932
2 34124 074.0355 125.0487 0024641 202.0744 277.5578 14.40868163244779
0 COSMOS 2251 DEB
1 34124U 93036KV  13290.99136341  .00006287  00000-0  19598-2 0  7946
2 34124 074.0350 120.8062 0024540 197.3001 288.9029 14.40892516245100
0 COSMOS 2251 DEB
1 34124U 93036KV  13293.47058498  .00006797  00000-0  21166-2 0  7959
2 34124 074.0355 116.2182 0024390 192.2201 189.1725 14.40920427245463
0 COSMOS 2251 DEB
1 34124U 93036KV  13295.48626789  .00008623  00000-0  26813-2 0  7961
2 34124 074.0361 112.4880 0024317 188.0860 205.1552 14.40943636245752
